{
  "type": "FeatureCollection",
  "features": [
    {
      "type": "Feature",
      "properties": {
        "norad_id": 38163,
        "name": "FENGYUN 1C DEB",
        "group": "fengyun-1c-debris",
        "lat": -49.64807628370038,
        "lon": 27.539142567681022,
        "alt_km": 843.9441074431888,
        "timestamp": "2025-12-06T03:35:02.161434+00:00",
        "meta_object_name": "FENGYUN 1C DEB",
        "meta_object_id": "1999-025ERL",
        "meta_epoch": "2025-12-04T21:04:40.965888",
        "meta_mean_motion": 14.05886533,
        "meta_eccentricity": 0.0075628,
        "meta_inclination": 99.1295,
        "meta_ra_of_asc_node": 15.3487,
        "meta_arg_of_pericenter": 264.2585,
        "meta_mean_anomaly": 94.9956,
        "meta_ephemeris_type": 0,
        "meta_classification_type": "U",
        "meta_norad_cat_id": 38163,
        "meta_element_set_no": 999,
        "meta_rev_at_epoch": 24431,
        "meta_bstar": 0.0013888,
        "meta_mean_motion_dot": 2.286e-05,
        "meta_mean_motion_ddot": 0,
        "tle_line1": "1 38163U 99025ERL 25338.87825192  .00002286  00000+0  13888-2 0  9996",
        "tle_line2": "2 38163  99.1295  15.3487 0075628 264.2585  94.9956 14.05886533244315"
      },
      "geometry": {
        "type": "Point",
        "coordinates": [
          27.539142567681022,
          -49.64807628370038
        ]
      }
    },
    {
      "type": "Feature",
      "properties": {
        "norad_id": 38166,
        "name": "FENGYUN 1C DEB",
        "group": "fengyun-1c-debris",
        "lat": -42.781429236301115,
        "lon": 91.44627541150894,
        "alt_km": 807.393085203189,
        "timestamp": "2025-12-06T03:35:02.161445+00:00",
        "meta_object_name": "FENGYUN 1C DEB",
        "meta_object_id": "1999-025ERP",
        "meta_epoch": "2025-12-05T05:58:05.833632",
        "meta_mean_motion": 14.30785074,
        "meta_eccentricity": 0.00531527,
        "meta_inclination": 99.079,
        "meta_ra_of_asc_node": 81.9967,
        "meta_arg_of_pericenter": 67.5557,
        "meta_mean_anomaly": 293.1242,
        "meta_ephemeris_type": 0,
        "meta_classification_type": "U",
        "meta_norad_cat_id": 38166,
        "meta_element_set_no": 999,
        "meta_rev_at_epoch": 63665,
        "meta_bstar": 0.0053619176,
        "meta_mean_motion_dot": 0.00014247,
        "meta_mean_motion_ddot": 0,
        "tle_line1": "1 38166U 99025ERP 25339.24867863  .00014247  00000+0  53619-2 0  9998",
        "tle_line2": "2 38166  99.0790  81.9967 0053152  67.5557 293.1242 14.30785074636659"
      },
      "geometry": {
        "type": "Point",
        "coordinates": [
          91.44627541150894,
          -42.781429236301115
        ]
      }
    },
    {
      "type": "Feature",
      "properties": {
        "norad_id": 38169,
        "name": "FENGYUN 1C DEB",
        "group": "fengyun-1c-debris",
        "lat": -38.30264291580566,
        "lon": 126.52097540142806,
        "alt_km": 679.7625592644035,
        "timestamp": "2025-12-06T03:35:02.161456+00:00",
        "meta_object_name": "FENGYUN 1C DEB",
        "meta_object_id": "1999-025ERS",
        "meta_epoch": "2025-11-22T03:51:43.920000",
        "meta_mean_motion": 14.70462609,
        "meta_eccentricity": 0.00311315,
        "meta_inclination": 98.9783,
        "meta_ra_of_asc_node": 298.2991,
        "meta_arg_of_pericenter": 127.7379,
        "meta_mean_anomaly": 232.6652,
        "meta_ephemeris_type": 0,
        "meta_classification_type": "U",
        "meta_norad_cat_id": 38169,
        "meta_element_set_no": 999,
        "meta_rev_at_epoch": 60966,
        "meta_bstar": 0.0026738914,
        "meta_mean_motion_dot": 0.00016302,
        "meta_mean_motion_ddot": 0,
        "tle_line1": "1 38169U 99025ERS 25326.16092500  .00016302  00000+0  26739-2 0  9993",
        "tle_line2": "2 38169  98.9783 298.2991 0031131 127.7379 232.6652 14.70462609609660"
      },
      "geometry": {
        "type": "Point",
        "coordinates": [
          126.52097540142806,
          -38.30264291580566
        ]
      }
    },
    {
      "type": "Feature",
      "properties": {
        "norad_id": 38173,
        "name": "FENGYUN 1C DEB",
        "group": "fengyun-1c-debris",
        "lat": -78.27182703487463,
        "lon": 10.298922457341297,
        "alt_km": 849.4042798183009,
        "timestamp": "2025-12-06T03:35:02.161466+00:00",
        "meta_object_name": "FENGYUN 1C DEB",
        "meta_object_id": "1999-025ERW",
        "meta_epoch": "2025-11-24T11:18:51.497568",
        "meta_mean_motion": 14.37024249,
        "meta_eccentricity": 0.01622994,
        "meta_inclination": 98.9991,
        "meta_ra_of_asc_node": 227.8463,
        "meta_arg_of_pericenter": 166.3393,
        "meta_mean_anomaly": 194.2263,
        "meta_ephemeris_type": 0,
        "meta_classification_type": "U",
        "meta_norad_cat_id": 38173,
        "meta_element_set_no": 999,
        "meta_rev_at_epoch": 60381,
        "meta_bstar": 0.00095115,
        "meta_mean_motion_dot": 3.231e-05,
        "meta_mean_motion_ddot": 0,
        "tle_line1": "1 38173U 99025ERW 25328.47142937  .00003231  00000+0  95115-3 0  9996",
        "tle_line2": "2 38173  98.9991 227.8463 0162299 166.3393 194.2263 14.37024249603812"
      },
      "geometry": {
        "type": "Point",
        "coordinates": [
          10.298922457341297,
          -78.27182703487463
        ]
      }
    },
    {
      "type": "Feature",
      "properties": {
        "norad_id": 38491,
        "name": "FENGYUN 1C DEB",
        "group": "fengyun-1c-debris",
        "lat": -21.0572579244218,
        "lon": -9.977847365215876,
        "alt_km": 840.9627112334429,
        "timestamp": "2025-12-06T03:35:02.161477+00:00",
        "meta_object_name": "FENGYUN 1C DEB",
        "meta_object_id": "1999-025ESA",
        "meta_epoch": "2025-11-07T18:37:17.530176",
        "meta_mean_motion": 13.96213514,
        "meta_eccentricity": 0.02268827,
        "meta_inclination": 98.9363,
        "meta_ra_of_asc_node": 318.985,
        "meta_arg_of_pericenter": 122.5823,
        "meta_mean_anomaly": 239.7468,
        "meta_ephemeris_type": 0,
        "meta_classification_type": "U",
        "meta_norad_cat_id": 38491,
        "meta_element_set_no": 999,
        "meta_rev_at_epoch": 65972,
        "meta_bstar": 0.00032180703,
        "meta_mean_motion_dot": 5.09e-06,
        "meta_mean_motion_ddot": 0,
        "tle_line1": "1 38491U 99025ESA 25311.77589734  .00000509  00000+0  32181-3 0  9993",
        "tle_line2": "2 38491  98.9363 318.9850 0226882 122.5823 239.7468 13.96213514659723"
      },
      "geometry": {
        "type": "Point",
        "coordinates": [
          -9.977847365215876,
          -21.0572579244218
        ]
      }
    },
    {
      "type": "Feature",
      "properties": {
        "norad_id": 38492,
        "name": "FENGYUN 1C DEB",
        "group": "fengyun-1c-debris",
        "lat": -31.500128200887197,
        "lon": 57.70090918708885,
        "alt_km": 1081.753557287173,
        "timestamp": "2025-12-06T03:35:02.161487+00:00",
        "meta_object_name": "FENGYUN 1C DEB",
        "meta_object_id": "1999-025ESB",
        "meta_epoch": "2025-11-07T22:24:32.618304",
        "meta_mean_motion": 13.93045648,
        "meta_eccentricity": 0.02334575,
        "meta_inclination": 98.6097,
        "meta_ra_of_asc_node": 26.0841,
        "meta_arg_of_pericenter": 245.4391,
        "meta_mean_anomaly": 112.2279,
        "meta_ephemeris_type": 0,
        "meta_classification_type": "U",
        "meta_norad_cat_id": 38492,
        "meta_element_set_no": 999,
        "meta_rev_at_epoch": 55519,
        "meta_bstar": 0.0058484062,
        "meta_mean_motion_dot": 9.486e-05,
        "meta_mean_motion_ddot": 0,
        "tle_line1": "1 38492U 99025ESB 25311.93371086  .00009486  00000+0  58484-2 0  9997",
        "tle_line2": "2 38492  98.6097  26.0841 0233457 245.4391 112.2279 13.93045648555192"
      },
      "geometry": {
        "type": "Point",
        "coordinates": [
          57.70090918708885,
          -31.500128200887197
        ]
      }
    },
    {
      "type": "Feature",
      "properties": {
        "norad_id": 38493,
        "name": "FENGYUN 1C DEB",
        "group": "fengyun-1c-debris",
        "lat": 74.69571747904374,
        "lon": -95.76763999020106,
        "alt_km": 1334.878401848212,
        "timestamp": "2025-12-06T03:35:02.161498+00:00",
        "meta_object_name": "FENGYUN 1C DEB",
        "meta_object_id": "1999-025ESC",
        "meta_epoch": "2025-12-02T14:34:29.911296",
        "meta_mean_motion": 13.62300089,
        "meta_eccentricity": 0.04265045,
        "meta_inclination": 99.0775,
        "meta_ra_of_asc_node": 296.6706,
        "meta_arg_of_pericenter": 271.5685,
        "meta_mean_anomaly": 83.6659,
        "meta_ephemeris_type": 0,
        "meta_classification_type": "U",
        "meta_norad_cat_id": 38493,
        "meta_element_set_no": 999,
        "meta_rev_at_epoch": 56360,
        "meta_bstar": 0.00057752132,
        "meta_mean_motion_dot": 7.81e-06,
        "meta_mean_motion_ddot": 0,
        "tle_line1": "1 38493U 99025ESC 25336.60729064  .00000781  00000+0  57752-3 0  9999",
        "tle_line2": "2 38493  99.0775 296.6706 0426504 271.5685  83.6659 13.62300089563606"
      },
      "geometry": {
        "type": "Point",
        "coordinates": [
          -95.76763999020106,
          74.69571747904374
        ]
      }
    }
  ]
}